IRIDIUM 126             
1 42809U 17039G   24173.41650872  .00000011  00000+0 -31158-5 0  9998
2 42809  86.3963 296.9313 0001871  95.0065 265.1344 14.34215845365922
IRIDIUM 124             
1 42810U 17039H   24173.57456578  .00000479  00000+0  13653-3 0  9999
2 42810  86.4504 233.5934 0002641  96.7258 263.4244 14.43270354370450
IRIDIUM 128             
1 42811U 17039J   24173.47702253  .00000381  00000+0  12888-3 0  9994
2 42811  86.3967 328.4367 0002190  98.3832 261.7612 14.34218149365966
IRIDIUM 121             
1 42812U 17039K   24173.43554194  .00000202  00000+0  65205-4 0  9994
2 42812  86.3963 296.9459 0002267  95.4394 264.7061 14.34216640365808
IRIDIUM 133             
1 42955U 17061A   24173.50873501  .00000055  00000+0  12717-4 0  9997
2 42955  86.3970 328.5232 0002024  93.0130 267.1297 14.34217740350767
IRIDIUM 100             
1 42956U 17061B   24173.50239290  .00000031  00000+0  41452-5 0  9992
2 42956  86.3967 328.4613 0002014  92.0992 268.0434 14.34215400350764
IRIDIUM 122             
1 42957U 17061C   24173.47067941  .00000020  00000+0 -36415-7 0  9995
2 42957  86.3967 328.4730 0002075  93.9704 266.1729 14.34217646350763
IRIDIUM 129             
1 42958U 17061D   24173.49604962 -.00000040  00000+0 -21231-4 0  9998
2 42958  86.3966 328.5219 0001821  95.4022 264.7381 14.34217215350786
